OBJECT_NAME,OBJECT_ID,EPOCH,MEAN_MOTION,ECCENTRICITY,INCLINATION,RA_OF_ASC_NODE,ARG_OF_PERICENTER,MEAN_ANOMALY,EPHEMERIS_TYPE,CLASSIFICATION_TYPE,NORAD_CAT_ID,ELEMENT_SET_NO,REV_AT_EPOCH,BSTAR,MEAN_MOTION_DOT,MEAN_MOTION_DDOT
GSAT0215 (GALILEO 19),2017-079A,2026-06-12T07:45:02.866176,1.70474566,.00033053,55.0745,221.6406,265.8729,94.1848,0,U,43055,999,5290,0,.6E-6,0
GSAT0216 (GALILEO 20),2017-079B,2026-06-10T06:25:34.900320,1.70474756,.00037016,55.0753,221.6973,276.7573,83.2861,0,U,43056,999,5288,0,.5E-6,0
GSAT0217 (GALILEO 21),2017-079C,2026-06-12T20:02:15.307296,1.70474017,.00044635,55.0731,221.6247,283.7261,76.3221,0,U,43057,999,5291,0,.61E-6,0
GSAT0218 (GALILEO 22),2017-079D,2026-06-11T07:05:06.741888,1.70474706,.0004381,55.0734,221.6644,272.9557,87.0844,0,U,43058,999,5291,0,.55E-6,0
BEIDOU-3 M7 (C27),2018-003A,2026-06-12T12:25:43.718304,1.86228217,.00049085,54.3326,302.4785,93.1066,266.9324,0,U,43107,999,5726,0,-.69E-6,0
BEIDOU-3 M8 (C28),2018-003B,2026-06-11T22:13:05.611296,1.86231100,.00024644,54.3258,302.4809,263.1764,96.7794,0,U,43108,999,5726,0,-.68E-6,0
BEIDOU-3 M4 (C22),2018-018A,2026-06-09T03:31:38.545824,1.86231351,.00076882,56.6431,63.4146,17.0743,342.9760,0,U,43207,999,5659,0,-.46E-6,0
BEIDOU-3 M3 (C21),2018-018B,2026-06-12T23:19:53.205312,1.86231082,.00087033,56.6466,63.2922,341.1081,18.8849,0,U,43208,999,5666,0,-.55E-6,0
BEIDOU-3 M9 (C29),2018-029A,2026-06-12T15:40:16.918176,1.86228237,.00008937,54.1986,300.1083,146.7724,213.2166,0,U,43245,999,5581,0,-.68E-6,0
BEIDOU-3 M10 (C30),2018-029B,2026-06-12T14:05:47.607648,1.86229309,.00039027,54.1961,300.1366,39.2234,320.7882,0,U,43246,999,5579,0,-.68E-6,0
IRNSS-1I,2018-035A,2026-06-12T20:17:59.488224,1.00271122,.00178673,28.7444,74.2643,181.7241,4.5323,0,U,43286,999,3003,0,.73E-6,0
COSMOS 2527 (756),2018-053A,2026-06-10T23:37:19.080768,2.13102302,.00073927,65.5740,74.1146,241.2390,118.7028,0,U,43508,999,6214,0,-.28E-6,0
BEIDOU-2 IGSO-7 (C16),2018-057A,2026-06-12T22:16:14.848032,1.00252210,.01048978,55.1944,163.0954,237.8995,304.6030,0,U,43539,999,2908,0,.23E-6,0
GSAT0221 (GALILEO 25),2018-060A,2026-06-10T14:42:06.878304,1.70475913,.0002678,57.1738,341.9578,307.2326,52.7584,0,U,43564,999,4905,0,-.63E-6,0
GSAT0222 (GALILEO 26),2018-060B,2026-06-12T00:07:45.785856,1.70475625,.00019184,57.1760,341.9240,251.7129,108.2786,0,U,43565,999,4912,0,-.67E-6,0
GSAT0219 (GALILEO 23),2018-060C,2026-06-12T05:25:51.322080,1.70475845,.00021411,57.1737,341.9194,327.3543,32.6441,0,U,43566,999,4910,0,-.68E-6,0
GSAT0220 (GALILEO 24),2018-060D,2026-06-11T20:39:23.261760,1.70475609,.00022524,57.1774,341.9298,315.5047,44.4900,0,U,43567,999,4908,0,-.67E-6,0
BEIDOU-3 M5 (C23),2018-062A,2026-06-12T06:35:19.564800,1.86228535,.00055487,54.0853,182.4712,288.5398,71.4632,0,U,43581,999,5354,0,.125E-5,0
BEIDOU-3 M6 (C24),2018-062B,2026-06-12T16:11:54.734784,1.86227626,.00048776,54.0851,182.4468,9.6750,350.3966,0,U,43582,999,5355,0,.122E-5,0
BEIDOU-3 M12 (C26),2018-067A,2026-06-12T14:43:12.512064,1.86227819,.0007719,54.1800,181.1956,30.1109,329.9936,0,U,43602,999,5303,0,.122E-5,0
BEIDOU-3 M11 (C25),2018-067B,2026-06-12T17:57:40.946976,1.86227237,.00044261,54.1775,181.1545,13.3821,346.6892,0,U,43603,999,5306,0,.121E-5,0
BEIDOU-3 M13 (C32),2018-072A,2026-06-12T16:52:38.546688,1.86231472,.00074157,56.6206,62.8082,327.4825,32.4971,0,U,43622,999,5257,0,-.56E-6,0
BEIDOU-3 M14 (C33),2018-072B,2026-06-13T02:32:05.649216,1.86231430,.00061527,56.6226,62.7894,359.0160,1.0091,0,U,43623,999,5257,0,-.56E-6,0
BEIDOU-3 M16 (C35),2018-078A,2026-06-13T06:15:50.730912,1.86232176,.00072329,54.0937,300.1237,40.8705,319.1665,0,U,43647,999,5208,0,-.68E-6,0
BEIDOU-3 M15 (C34),2018-078B,2026-06-12T20:28:49.024416,1.86232293,.00042415,54.0899,300.1384,57.4924,302.5317,0,U,43648,999,5209,0,-.68E-6,0
BEIDOU-3 G1 (C59),2018-085A,2026-06-13T05:21:29.755584,1.00270668,.00081584,2.8568,97.4977,348.6556,55.7326,0,U,43683,999,2802,0,-.98E-6,0
COSMOS 2529 (757),2018-086A,2026-06-11T01:56:22.833312,2.13102175,.00117747,64.2944,192.8006,256.0467,103.8983,0,U,43687,999,5915,0,.119E-5,0
BEIDOU-3 M17 (C36),2018-093A,2026-06-10T11:08:16.160352,1.86228347,.00100759,54.1687,182.5246,291.4418,158.4113,0,U,43706,999,5141,0,.127E-5,0
BEIDOU-3 M18 (C37),2018-093B,2026-06-12T08:11:19.438080,1.86226356,.00079008,54.1696,182.4530,320.5201,39.4855,0,U,43707,999,5144,0,.125E-5,0
GPS BIII-1  (PRN 04),2018-109A,2026-06-13T04:17:15.042048,2.00561338,.00381599,55.6795,92.3452,198.0597,271.3624,0,U,43873,999,5499,0,-.23E-6,0
BEIDOU-3 IGSO-1 (C38),2019-023A,2026-06-06T22:54:10.040832,1.00294886,.00254341,58.6799,37.7569,225.6649,92.8731,0,U,44204,999,710,0,-.215E-5,0
